{
    "links": {
        "self": "http://www.neowsapp.com/rest/v1/neo/3160847?api_key=iIulBulltgU6a56xZRHN4H3l9WmuAYTsLGpBGhQ2"
    },
    "id": "3160847",
    "neo_reference_id": "3160847",
    "name": "(2003 TL1)",
    "designation": "2003 TL1",
    "nasa_jpl_url": "http://ssd.jpl.nasa.gov/sbdb.cgi?sstr=3160847",
    "absolute_magnitude_h": 19.9,
    "estimated_diameter": {
        "kilometers": {
            "estimated_diameter_min": 0.2783267681,
            "estimated_diameter_max": 0.6223575734
        },
        "meters": {
            "estimated_diameter_min": 278.3267680719,
            "estimated_diameter_max": 622.3575733667
        },
        "miles": {
            "estimated_diameter_min": 0.1729441822,
            "estimated_diameter_max": 0.3867149477
        },
        "feet": {
            "estimated_diameter_min": 913.1455937611,
            "estimated_diameter_max": 2041.8556210042
        }
    },
    "is_potentially_hazardous_asteroid": false,
    "close_approach_data": [
        {
            "close_approach_date": "2003-10-15",
            "close_approach_date_full": "2003-Oct-15 16:20",
            "epoch_date_close_approach": 1066234800000,
            "relative_velocity": {
                "kilometers_per_second": "4.9054524003",
                "kilometers_per_hour": "17659.6286411284",
                "miles_per_hour": "10973.0064742612"
            },
            "miss_distance": {
                "astronomical": "0.275752062",
                "lunar": "107.267552118",
                "kilometers": "41251921.12330794",
                "miles": "25632755.179371972"
            },
            "orbiting_body": "Earth"
        },
        {
            "close_approach_date": "2006-02-26",
            "close_approach_date_full": "2006-Feb-26 09:33",
            "epoch_date_close_approach": 1140946380000,
            "relative_velocity": {
                "kilometers_per_second": "2.3156992409",
                "kilometers_per_hour": "8336.5172673952",
                "miles_per_hour": "5179.9876320656"
            },
            "miss_distance": {
                "astronomical": "1.837812983",
                "lunar": "714.909250387",
                "kilometers": "274932907.71514621",
                "miles": "170835387.112029298"
            },
            "orbiting_body": "Juptr"
        }
    ],
    "orbital_data": {
        "orbit_id": "23",
        "orbit_determination_date": "2017-04-06 09:13:43",
        "first_observation_date": "2003-09-21",
        "last_observation_date": "2003-12-13",
        "data_arc_in_days": 83,
        "observations_used": 117,
        "orbit_uncertainty": "6",
        "minimum_orbit_intersection": ".293043",
        "jupiter_tisserand_invariant": "3.218",
        "epoch_osculation": "2459000.5",
        "eccentricity": ".5087188465132843",
        "semi_major_axis": "2.578152129781919",
        "inclination": "8.221433149774485",
        "ascending_node_longitude": "246.2426648544161",
        "orbital_period": "1512.032887309992",
        "perihelion_distance": "1.266597552183494",
        "perihelion_argument": "132.74383868",
        "aphelion_distance": "3.889706707380344",
        "perihelion_time": "2458964.477080473692",
        "mean_anomaly": "8.576699050866795",
        "mean_motion": ".238090059430165",
        "equinox": "J2000",
        "orbit_class": {
            "orbit_class_type": "AMO",
            "orbit_class_description": "Near-Earth asteroid orbits similar to that of 1221 Amor",
            "orbit_class_range": "1.017 AU < q (perihelion) < 1.3 AU"
        }
    },
    "is_sentry_object": false
}